name;webpage;institution;country;address;lat;long;exp_theor;fields;people;atom;comment
Adams group;http://massey.dur.ac.uk/csa/research.html;Durham;United Kingdom;;54.77525;-1.584852;Exp/Theory;Optical lattice experiments. EIT and magnetometry. Quantum Fluids.                Joint Quantum Centre (JQC) Durham-Newcastle;;;
Alon group;http://hctpa.haifa.ac.il/index.php/current-members/10-members/current-members/5-prof-ofir-alon;University of Haifa;Israel;;32.7614296;35.0195184;Theory;Our group deals with theoretical and computational atomic, molecular, and optical (AMO) physics with primary interest in the physics of Bose-Einstein condensates.;;;
Anderson group;http://www.optics.arizona.edu/Anderson/default.htm;University of Arizona;United States;;32.2318851;-110.9501094;Exp;We are pursuing research with Bose-Einstein condensates (BECs).  Specific areas of interest include vortices and solitons, studying BECs in optical lattices, and pursuing atom interferometry and phase transitions with condensates held in optical potentials.;;;
Anderson group;http://dza.colorado.edu/~AOPy/index.html;JILA, Boulder;United States;;40.0074363;-105.2686481;Exp;"I'm interested in nonlinear optics, atom optics and optical precision measurements. In nonlinear optics, I study photorefractive systems for measurement and information processing, especially self-organized information processing. Our group is currently investigating acoustic and RF antenna-array signal processing and sensing of chemical vapors. Atom-optics research centers on the development of atom waveguides, atom ""chip"" technology, and the use of Bose-Einstein condensates to make practical devices. The group is currently developing integrated atom interferometers for inertial navigation and other sensing applications.";;;
Antezza group;https://sites.google.com/site/mauroantezza/;Université de Montpellier;France;;43.6156599;3.8720638;Theory;Systems out of equilibrium,, ultra cold quantum gases,, Casimir-Lifshitz interaction,,        radiation-matter interaction,, disordered systems,, heat transfer,, elementary quantum systems,, entanglement,, open quantum systems.;M. Antezza, B. Guizal, R. Messina, D. Cassagne;;
Anukool group;http://www.qaocmu.org/;Thailand Center of Excellence in Physics (ThEP), Chiang Mai University;Thailand;;18.8024763;98.9557741;Exp;Rb BEC, single atom trap, atom interferometry;;;
Arimondo group;http://www.df.unipi.it/gruppi/struttura/;Pisa;Italy;;43.7228386;10.4016888;Exp;;;;
Arlt group;http://phys.au.dk/forskning/uqgg/;Aarhus Universitet;Denmark;;56.1681384;10.2030118;Exp;BEC in optical lattices, molecular quantum gases;;;
Aspect group;https://www.lcf.institutoptique.fr/Groupes-de-recherche/Optique-atomique;Laboratoire Charles Fabry, Institut d'Optique;France;;48.71374;2.2034927;Exp;;Alain ASPECT (Professeur chaire Augustin Fresnel de l'IOGS, Directeur de recherche émérite CNRS), Denis BOIRON (Professeur IOGS-U.Psud), Isabelle BOUCHOULE (Chargée de recherche CNRS),        Thomas BOURDEL (Chargé de recherche CNRS),        Philippe BOUYER (Directeur de recherche CNRS),        Marc CHENEAU (Chargé de recherche CNRS),        David CLEMENT (Maitre de conférence IOGS-U.Psud),        Vincent JOSSE (Maitre de conférence IOGS-U.Psud),        Laurent SANCHEZ-PALENCIA (Chercheur CR au CNRS et Prof. CC ? l'Ecole Polytechnique),        Christoph WESTBROOK (Directeur de recherche CNRS,, group leader);;
Ballagh group;http://www.physics.otago.ac.nz/research/uca/index.html;Otago;New Zealand;;-45.4790671;170.1547567;Theory;;;;
Ban/Buljan group;http://cold.ifs.hr/;University of Zagreb/Institute of Physics;Croatia;;45.8105703;15.9698015;Exp/Theory;;;;
Barreiro group;http://quantum.ucsd.edu;UC San Diego;United States;;32.8800604;-117.2340135;Exp;;;;
Barrett group;http://www.quantumlah.org/ultracold/index.html;National University of Singapore;Singapore;;1.2966426;103.7763939;Exp;Neutral Atoms for Quantum Information Processing                Our research focuses on the use of ultra-cold atoms for neutral atom quantum information applications.  We investigate the use of micro-fabricated magnetic traps (atom chips) and optical lattices as a means to trap and manipulate large arrays of atoms (qubits).  To provide the necessary interaction between individual atoms we will investigate the use of micro-cavities.;;;
Becker group;http://jilawww.colorado.edu/beckergroup/;JILA, Boulder;United States;;40.0074363;-105.2686481;Theory;My research interests are related to the theoretical analysis and numerical simulation of ultrafast processes in atoms, molecules and clusters interacting with intense laser pulses. Laser systems currently generate light pulses with field strengths exceeding that of the Coulomb field within an atom or molecule. Pulse durations are as short as a few femtoseconds (10-15 sec) or even less in the attosecond regime, which correspond to the time scales of electron and nuclear dynamics in materials. My group pursues theoretical studies on the coherent control of chemical reactions, the observation of correlated electron dynamics in atoms and molecules, the imaging of molecular dynamics, and the propagation of ultrashort intense laser pulses. We often work in close collaboration with experimental groups.;;;
Bhattacherjee group;http://people.du.ac.in/~aranya/;ARSD College, University of Delhi;India;;28.591266;77.167563;Theory;Currently I am looking into the opto-mechanical properties of Bose-Einstein condensates in optical cavities. Particularly how the condensate modes can couple to the cavity mode and the mirror mode. I am also looking into the aspect of the use of BEC to detect weak forces. Other aspects that I am looking into is the parametric excitations of BEC.;;;
Bigelow group;http://www.pas.rochester.edu/~catgroup;University of Rochester;United States;;43.1305531;-77.6260033;Exp/Theory;BEC, cold molecules, atom chips, non-linear optics;;;
Birkl group;http://www.physik.tu-darmstadt.de/apq/apq_start.html;Technische Universität Darmstadt;Germany;;49.874778;8.65614;Exp/Theory;Quantum Optics, Atomic Physics, and Quantum Dynamics;;;
Blakie group;http://www.physics.otago.ac.nz/research/uca/index.html;Otago;New Zealand;;-45.4790671;170.1547567;Theory;;;;
Bloch group;http://www.quantum-munich.de/;LMU/MPQ Munich;Germany;;48.2596644;11.666723;Exp;Ultracold quantum gases in optical lattices;;;
Bohn group;http://grizzly.colorado.edu/~bohn/;JILA, Boulder;United States;;40.0074363;-105.2686481;Theory;My primary research centers on the theory of collisions between trapped atoms and molecules in a dilute gas at milliKelvin temperatures and below. In this novel energy regime, tiny energy splittings (due, for instance, to magnetic interactions or molecular rotations) dominate the collision dynamics. My goal is to unravel these delicate energy exchanges and assess their response to external electromagnetic fields. More broadly, I'm looking for novel approaches to understanding collective motions of many-body quantum-mechanical systems such as electrons in an atom or semiconductor device or atoms in a Bose-Einstein condensate.;;;
Bongs group;http://mpa.ac.uk/muarc/people/kaibongs.html;University of Birmingham;United Kingdom;;52.4508168;-1.9305135;Exp;Optical lattices,, Bose-Fermi mixtures,, optical clock.;;;
Boninsegni group;http://www.ualberta.ca/~massimob/index.html;University of Alberta;Canada;;53.5232189;-113.5263186;Theory;;Massimo Boninsegni (Professor), Joseph Turnbull (Graduate student), Fabio Mezzacapo (Graduate student), Long Dang (Graduate student), Javier Cuervo (Graduate student);;
Boshier group;http://quantum.lanl.gov;Los Alamos National Laboratory;United States;;35.8440582;-106.287162;Exp;;;;
Bouchoule group;https://www.lcf.institutoptique.fr/Groupes-de-recherche/Optique-atomique;Institut d'Optique;France;;48.71374;2.2034927;Exp/Theory;;;;
Bourdel group;https://www.lcf.institutoptique.fr/Groupes-de-recherche/Optique-atomique;Laboratoire Charles Fabry, Institut d'Optique;France;;48.71374;2.2034927;Exp;;Alain ASPECT (Professeur chaire Augustin Fresnel de l'IOGS, Directeur de recherche émérite CNRS), Denis BOIRON (Professeur IOGS-U.Psud), Isabelle BOUCHOULE (Chargée de recherche CNRS),        Thomas BOURDEL (Chargé de recherche CNRS),        Philippe BOUYER (Directeur de recherche CNRS),        Marc CHENEAU (Chargé de recherche CNRS),        David CLEMENT (Maitre de conférence IOGS-U.Psud),        Vincent JOSSE (Maitre de conférence IOGS-U.Psud),        Laurent SANCHEZ-PALENCIA (Chercheur CR au CNRS et Prof. CC ? l'Ecole Polytechnique),        Christoph WESTBROOK (Directeur de recherche CNRS,, group leader);;
Bouyer group;http://www.lp2n.fr;Institut d'Optique Bordeaux;France;;44.8297507;-0.5566616;Exp;BEC, Quantum simulators, Atom Interferometry;P. Bouyer, B. Battelier, A. Bertoldi;;
Boyer group;http://mpa.ac.uk/muarc/people/vincentboyer.html;University of Birmingham;United Kingdom;;52.4508168;-1.9305135;Exp;Quantum images,, quantum memories.;;;
Bradley group;http://www.physics.otago.ac.nz/research/btg/;University of Otago;New Zealand;;-45.8646835;170.5144227;Theory;Non-equilibrium superfluids, quantum vortices, two-dimensional quantum turbulence, stochastic Gross-Piteavskii theory, c-fields.;;;
Brand group;http://ctcp.massey.ac.nz/~brand;Massey University Auckland;New Zealand;;-36.7323894;174.7027411;Theory;Nonlinear waves / solitons in Bose-Einstein condensates, low-dimensional and strongly interacting quantum gases, many-body theory, dynamics of few-particle systems;;;
Brantut group;lqg.epfl.ch;EPFL;Switzerland;;46.5190557;6.5667576;Exp;Lithium, transport and dynamics;;;
Caldas group;http://www.ufsj.edu.br/dcnat/heron_caldas_ingles.php;UFSJ;Brazil;;-21.1233834;-44.2512157;Theory;Theoretical studies on ultracold imbalanced Fermi gases.;Heron Caldas, André Mota, Lizardo Nunes, Ricardo Farias.;;
Carr group;http://www.mines.edu/~lcarr/;Colorado School of Mines;United States;;39.7510136;-105.2225705;Theory;Complex quantum systems and nonlinear dynamics in both fermionic and bosonic ultracold quantum gases.  In particular, quantum phase transitions, optical lattices, macroscopic quantum tunnelling, matter-wave solitons and vortices, the BCS-BEC crossover, and rotating systems.;;;
Cassettari group;http://www.st-andrews.ac.uk/coldatoms;University of St Andrews;United Kingdom;;56.3416934;-2.7927522;Exp;Ultracold Rubidium in flexible, holographic potentials;Dr Donatella Cassettari;;
Chapman group;http://www.physics.gatech.edu/ultracool/base.htm;Georgia Inst. of Technology;United States;;33.7756178;-84.396285;Exp;;;;
Chen group;http://www.iqe.pku.edu.cn/Groups/CAP/index.aspx;Peking University;China;;39.986913;116.3058739;Exp/Theory;Bose-Einstein Condensation,  Femtosecond Optical Comb and Optical Frequency Standard;Xiaoji ZHOU;;
Chen group;http://zimp.zju.edu.cn/~qchen/;Zhejiang University;China;;30.263944;120.123279;Theory;Fermi gas superfluidity and related physics, optical lattice and quantum simulation;Qijin Chen;;
Cheneau group;https://www.lcf.institutoptique.fr/Groupes-de-recherche/Optique-atomique;Institut d'Optique, Laboratoire Charles Fabry;France;;48.71374;2.2034927;Exp;;Alain ASPECT (Professeur chaire Augustin Fresnel de l'IOGS, Directeur de recherche émérite CNRS), Denis BOIRON (Professeur IOGS-U.Psud), Isabelle BOUCHOULE (Chargée de recherche CNRS),        Thomas BOURDEL (Chargé de recherche CNRS),        Philippe BOUYER (Directeur de recherche CNRS),        Marc CHENEAU (Chargé de recherche CNRS),        David CLEMENT (Maitre de conférence IOGS-U.Psud),        Vincent JOSSE (Maitre de conférence IOGS-U.Psud),        Laurent SANCHEZ-PALENCIA (Chercheur CR au CNRS et Prof. CC ? l'Ecole Polytechnique),        Christoph WESTBROOK (Directeur de recherche CNRS,, group leader);;
Chevy group;http://www.lkb.ens.fr/-Ultracold-Fermi-gases-;LKB ENS Paris;France;;48.8422058;2.3451689;Exp/Theory;;;;
Chin group;http://ultracold.uchicago.edu/homepage/;University of Chicago;United States;;41.7886079;-87.5987133;Exp;Ultracold Atoms and Molecules;;;
Chu group;http://www.stanford.edu/group/chugroup/amo/atomicphysics.html;Stanford;United States;;37.4274745;-122.169719;Exp;;;;
Clark group;http://physics.nist.gov/eopd;NIST Gaithersburg;United States;;39.1380532;-77.2208339;Theory;Bose-Einstein condensation, coherent matter-wave and quantum information rocessing metrology, and diverse research in the Electron and Optics Physics Division. See web pages for more details.;Charles Clark,, William Reinhardt;;
Clement group;https://www.lcf.institutoptique.fr/Groupes-de-recherche/Optique-atomique;Institut d'Optique, Laboratoire Charles Fabry;France;;48.71374;2.2034927;Exp;;Alain ASPECT (Professeur chaire Augustin Fresnel de l'IOGS, Directeur de recherche émérite CNRS), Denis BOIRON (Professeur IOGS-U.Psud), Isabelle BOUCHOULE (Chargée de recherche CNRS),        Thomas BOURDEL (Chargé de recherche CNRS),        Philippe BOUYER (Directeur de recherche CNRS),        Marc CHENEAU (Chargé de recherche CNRS),        David CLEMENT (Maitre de conférence IOGS-U.Psud),        Vincent JOSSE (Maitre de conférence IOGS-U.Psud),        Laurent SANCHEZ-PALENCIA (Chercheur CR au CNRS et Prof. CC ? l'Ecole Polytechnique),        Christoph WESTBROOK (Directeur de recherche CNRS,, group leader);;
Close/Robins group;http://atomlaser.anu.edu.au/;ANU, Canberra;Australia;;-35.2776999;149.118527;Exp;;;;
Clougherty group;http://www.uvm.edu/physics/dpc/;University of Vermont;United States;;44.4778528;-73.1964637;Theory;Interaction of ultracold atoms and molecules with surfaces.  Many-body effects in quantum sticking and scattering of ultracold atoms from surfaces.;;;
Cohen-Tannoudji group;http://www.lkb.ens.fr/recherche/atfroids/welcome.html;ENS Paris;France;;48.8422058;2.3451689;Exp/Theory;;;;
Cooper group;http://www.tcm.phy.cam.ac.uk/~nrc25/;University of Cambridge;United Kingdom;;52.2042666;0.1149085;Theory;;;;
Cornell group;http://jilawww.colorado.edu/bec/CornellGroup/index.html;JILA, Boulder;United States;;40.0074363;-105.2686481;Exp;;Pam Leland;;
Cornish group;http://massey.dur.ac.uk/;Durham University;United Kingdom;;54.7649859;-1.5782029;Exp;Bose-Einstein condensation with tunable interactions and two species mixtures of quantum degnerate Bose gases.;;;
Cundiff group;http://jilawww.colorado.edu/~cundiffs/;JILA, Boulder;United States;;40.0074363;-105.2686481;Exp;Ultrafast optics is my primary research interest. In particular, I study the interaction of ultrashort pulses of light with semiconductors. In direct-gap semiconductors, such as gallium arsenide, the coherent optical response is determined by many-body interactions among electronic carriers excited by the incident pulses.;;;
Dalibard group;http://www.college-de-france.fr/site/en-jean-dalibard/;College de France;France;;48.8488839;2.3454896;Exp;;;;
Davidson group;http://www.weizmann.ac.il/home/davidson/;Weizmann Institute;Israel;;31.9045055;34.8083407;Exp;Bose-Einstein Condensate        New optical traps        Precision spectroscopy        Atomic optics        Diffractive (holographic) optical elements;;;
Davis group;http://www.physics.uq.edu.au/people/mdavis/;University of Queensland;Australia;;-27.4954306;153.0120301;Theory;Quantum and atom optics, quantum dynamics, condensate formation, low-dimensional systems, soliton and vortex formation, simulation techniques, computational physics.;Matthew Davis;;
DeMarco group;http://www.uiuc.edu/~bdemarco;University of Illinois at Urbana-Champaign;United States;;40.1052159;-88.2259205;Exp;;;;
DeMille group;http://www.yale.edu/demillegroup/;Yale;United States;;41.3163244;-72.9223431;Exp/Theory;Cold molecules and precision measurement;Sidney Cahn;;
Denschlag group;http://www.uni-ulm.de/en/nawi/qm.html;Universität Ulm;Germany;;48.4222305;9.955582;Exp;Ultracold molecules, atom-ion hybrid systems, fermions in lattices.;Johannes Hecker Denschlag;;
Dieckmann group;http://qmatter.quantumlah.org/;Centre for Quantum Technologies, National University of Singapore;Singapore;;1.297155;103.78031;Exp;;;;
Dijkhuis/van der Straten group;http://www1.phys.uu.nl/wwwaoud/;Utrecht University;Netherlands, The;;52.0901527;5.1226018;Exp;Atom Optics and Ultrafast Dynamics: nonlinear interactions in condensed matter physics and atomic physics of light waves, acoustic waves and matter waves, using modern laser techniques (femtosecond light pulses and laser cooling). Examples are Bose-Einstein condensation, quantum-phase transitions of ultracold atoms in optical lattices, nonlinear optics of photonic crystals, and formation of solitons.;;;
Doyle group;http://www.doylegroup.harvard.edu;Harvard University;United States;;42.3770029;-71.1166601;Exp;Trapping and cooling of atoms and molecules using cryogenic buffer-gas loading.;;;
Duan group;http://www-personal.umich.edu/~lmduan/;University of Michigan;United States;;42.2780436;-83.7382241;Theory;Theoretical quantum optics and quantum information.;;;
Duine group;http://www.phys.uu.nl/~duine/;Utrecht;Netherlands, The;;52.0907374;5.1214201;Theory;;;;
Dulieu group;http://www.lac.u-psud.fr/spip.php?rubrique324&lang=fr;Laboratoire Aime Cotton, CNRS, Orsay;France;;48.707153;2.1725587;Theory;Molecular structure calculations of neutral and charged diatomics,, photoassociation,, cold collisions,, coherent control of cold collisions,, long-range interactions between atoms and molecules;;;
Dumke group;http://www1.spms.ntu.edu.sg/~rdumke/;Nanyang Technological University;Singapore;;1.3483099;103.6831347;Exp;Quantum Optics, Atomic Physics, and Quantum Dynamics;;;
Elfa group;Elfa Groups;SSMRV Degree college;India;;12.9225525;77.5928897;Exp/Theory;ELFA type particles        Ultra cold atoms, Magnetization using elfa technology,;;;
Engels group;http://www.physics.wsu.edu/Research/engels/index.html;Washington State University;United States;;46.7319225;-117.1542121;Exp;;;;
Ertmer group;http://www.iqo.uni-hannover.de/ertmer/index.html;Hannover, University of;Germany;;52.3829641;9.7196989;Exp;;;;
Esslinger group;http://www.quantumoptics.ethz.ch/;ETH Zurich;Switzerland;;47.376313;8.5476699;Exp;;;;
Feder group;http://www.iqis.org/people/home/dfeder/;University of Calgary;Canada;;51.0781599;-114.1358007;Theory;Theory of ultracold bosons and fermions,, superfluidity,, vortices,, implementations of quantum logic with ultracold atoms;David Feder;;
Ferlaino group;http://www.uibk.ac.at/exphys/ultracold/projects/erbium/index.html;Univ. Innsbruck;Austria;;47.2633542;11.3838006;Exp;Ultracold erbium atoms;;;
Ferrari group;http://bec.science.unitn.it/;INO-CNR and University of Trento;Italy;;46.069477;11.121046;Exp;Spontaneous creation of solitons. We use ultracold atoms at the BEC transition to explore the Kibble-Zurek mechanism by directly observing the creation of phase defects, such as solitons in elongated condensates, for temperature quenched BECs of sodium atoms.                Dipolar quantum gases of NaK molecules;Gabriele Ferrari, Giacomo Lamporesi;NaK;Location of University of Trento.
Fertig group;http://www.physast.uga.edu/~cfertig/;University of Georgia;United States;;33.9480053;-83.3773221;Exp;Bose-Einstein Condensates for Atomic and Condensed Matter Physics.;;;
Fischer group;http://phya.snu.ac.kr/fischer;Seoul National University;Korea, South;;37.459882;126.9519053;Theory;;;;
Folman group;http://www.bgu.ac.il/atomchip/;Ben Gurion University;Israel;;31.262218;34.801461;Exp;Atom chips;;;
Foot group;http://www-matterwave.physics.ox.ac.uk/;Oxford;United Kingdom;;51.7520209;-1.2577263;Exp;;;;
Freegarde/Himsworth group;http://phyweb.phys.soton.ac.uk/quantum/research.php;University of Southampton;United Kingdom;;50.9362845;-1.3980303;Exp/Theory;Our research uses coherent, pulsed interactions and spatially-varying dipole forces, is both experimental and theoretical, and ranges from atom interferometry and quantum computation, to optical tweezers, optically-induced self-organization and cavity-mediated cooling. We also explore underpinning technologies and techniques from laser modulation, stabilization and the design and analysis of resonant enhancement cavities, to miniature pumps, atom sources and optical components for integrated atom chips, and we collaborate closely with colleagues in nanofabrication to explore the use of nanostructured surfaces for atomic manipulation.;Tim Freegarde and Matt Himsworth;;
Fromhold group;http://www.nottingham.ac.uk/%7Eppzkab/ColdAtoms/;University of Nottingham;United Kingdom;;52.938636;-1.1951582;Theory;;;;
Gadway group;http://publish.illinois.edu/gadwaylab/;University of Illinois at Urbana-Champaign;United States;;40.1052159;-88.2259205;Exp;;;;
Gardiner group;http://www.physics.otago.ac.nz/research/uca/index.html;Otago;New Zealand;;-45.4790671;170.1547567;Theory;;;;
Gardiner group;http://massey.dur.ac.uk/;Durham University;United Kingdom;;54.7649859;-1.5782029;Theory;BEC theory, quantum chaos, atom optics;;;
Garreau group;http://www-phlam.univ-lille1.fr/perso/garreau/;PhLAM, Université Lille 1;France;;50.6114114;3.1406038;Exp/Theory;Quantum chaos, quantum transport, optical lattices, cold atom dynamics, chaos in Bose-Einstein condensates;;;
Gasenzer group;http://www.thphys.uni-heidelberg.de/~gasenzer/;University of Heidelberg;Germany;;49.4191402;8.6702492;Theory;Our research is focused on the many-body dynamics of ultracold quantum gases far from thermal equilibrium, in particular for systems where strong correlations between the particles are important. We are applying and further developing recent substantial innovations in non-equilibrium quantum field theory for ultracold atomic gases. The functional field theory methods involve non-perturbative approximation schemes which recently have shown, by comparison with exact results, to excellently describe the far-from-equilibrium long-time dynamics of systems, even for strong interparticle forces. With this step a whole new class of phenomena can be accessed.;PD Dr. Thomas Gasenzer;;
Gawlik group;http://www.if.uj.edu.pl/ZF/qnog/;Univ. Krakow & Nat.Lab Torun;Poland;;50.029727;19.904759;Exp;MOTs & optical traps, spectroscopy, diagnostics, optical lattices, Rb87-BEC in MT, work towards all-optical BEC and towards optical Sr clock;Michal Zawada, Jerzy Zachorowski, Wlodzimierz Jastrzebski, Tomasz Brzozowski, Maria Brzozowska;;Location from webpage (£ojasiewicza Str. 11).
Gerbier group;http://www.lkb.ens.fr/-Condensats-de-Bose-Einstein-;LKB, ENS Paris;France;;48.8422058;2.3451689;Exp;Mesoscopic BECs,, BEC in artificial gauge potentials;Jean Dalibard (College de France),, Jérôme Beugnon (MdC UPMC),, Fabrice Gerbier (CNRS);;
Ghosh group;http://web.iitd.ac.in/~sankalpa;Physics Department, Indian Institute of Technology Delhi;India;;28.5449756;77.1926284;Theory;We have been working on the following subtopics in cold atomic physics        1. Ultra cold atoms under the action of synthetic gauge field ( abelian and non-abelian): Vortices        3. Investigation in super-solid phase with ultra-cold atoms        4. Ultra cold atoms loaded a optical cavity        Here are links to some recent interesting publications:                Kaleidoscope  image in Physical Review A, June (2012)        Link:http://pra.aps.org/kaleidoscope/pra/85/6/063606                Kaleidoscope image in Physical Review A, January (2012)        Link:http://pra.aps.org/kaleidoscope/pra/85/1/013642                Vortices in a supersolid        See the paper in        http://pra.aps.org/abstract/PRA/v82/i6/e063617        http://iopscience.iop.org/0953-4075/48/10/105301        See our recent work (with Bikash Padhi)        Synthetic Landau Levels of Ultra Cold Fermions in a cavity        http://journals.aps.org/prl/abstract/10.1103/PhysRevLett.111.043603        spin-orbit coupled BEC in  cavity        http://journals.aps.org/pra/abstract/10.1103/PhysRevA.90.023627;Sankalpa Ghosh (PI)                Former Graduate Student: Dr. Rashi Sachdeva (Ultra cold supersolid phase presence of Gauge field, currently in Okinawa Insitute of Science and Technology)        Dr. Jasleen Lugani (Now in France ).        Current Graduate student Inderpreet Kaur        Former Master's and Undergraduate Project students : Adhip Agarwal and Madhurima Nath (2011-2012), Akshay Kumar ( 2010-2011), Gangandeep Singh and G. Bhubanesh ( 2009-2010), Sonika Johri, Kanchan Gehlot and Vishwanath Shukla (2008-2009), Chaitanya Joshi (2007-2008), Emroj Hossain (2013-2014), Bikash Padhi (2012-2014)        Rahul  Walia ( 2014-2015);;
Gibble group;http://www.phys.psu.edu/~kgibble/;Penn State;United States;;40.7982133;-77.8599084;Exp;;;;
Glorieux group;http://www.quantumoptics.fr;LKB, ENS Paris;France;;48.8422058;2.3451689;Exp;Quantum fluid of light, quantum simulation, nanophotonics;;;
Goldwin group;http://mpa.ac.uk/muarc/people/jongoldwin.html;University of Birmingham;United Kingdom;;52.4508168;-1.9305135;Exp;Cavity QED,, quantum degenerate Fermi gases.;;;
Gonokami group;http://www.jst.go.jp/erato/project/gkr_P/gkr_P.html;JST/ERATO;Japan;;35.801062;139.719779;Exp;;;Sr;Location of JST.
Gorceix group;http://www-lpl.univ-paris13.fr:8082/;Université Paris Nord / CNRS;France;;48.956155;2.341454;Exp;Our experiment creates dipolar Bose Einstein Condensates (BECs) of Cr atoms. In the last decade, the study of such ultracold atom gases has become an interdisciplinary and fascinating field. The realization of degenerate quantum gases opens the way to perform fundamental studies in quantum physics with an almost ideal dilute system displaying tunable properties (density, temperature, interaction strength, ...). This model system can be studied in a highly versatile environment since confining potentials can be tailored at will. Furthermore, since the analysis protocols benefit from the reliability of the laser spectroscopy techniques, the comparison between experimental outcomes and theoretical predictions is much sounder than what is usually met in condensed matter.                To date the available atomic quantum gases are made of atoms interacting through isotropic short-range potentials. The long-range anisotropic dipole-dipole interaction between atoms carrying a large magnetic moment is expected to induce a wealth of new properties. For example, a supersolid phase arises when a dipolar quantum gas is transfered  in a 2D lattice.        The magnetic dipole moment of chromium in the ground state is 6µB. Due to this exceptionally large dipole moment, chromium degenerate gases represent ideal systems to investigate quantum dynamics under the influence of dipolar interactions.        As a first stage to reach degeneracy, we set up a magneto-optical trap for the most abundant bosonic isotope 52Cr and for the fermionic isotope 53Cr. The two isotopes can be trapped separately as well as simultaneously producing a cold dipolar boson-fermion mixture. We studied the collisional properties of these cold gases. In a second stage, several millions 52Cr atoms are optically trapped at the focus of a powerful infrared laser at a temperature on the order of 100µK. Finally, we evaporatively cool the trapped 52Cr atoms down to degeneracy.        We have studied the collective excitations of the chromium BEC and demonstrated the impact of the anisotropic dipole-dipole interactions on the frequencies of the low-energy collective vibration modes of the trapped BEC. In a further set of experiments, we have studied S=3-spin dynamics using our Cr-BECs either in 3D or in restricted 2D and 1D geometries. At very low magnetic fields, spontaneous demagnetization occurs which enables the study of the S=3-spinor physics.        We plan to reach degeneracy for the fermionic isotope 53Cr , and to create strongly correlated systems, by extending our current experiments on the loading of our condensates into optical lattices. This will meet the current burst of interest in the statistical physics of such systems related to the field of quantum magnetism and will open new avenues for the processing of quantum information.                Selected recent publications        Q. Beaufils et al, All-optical Bose-Einstein Condensation of Chromium, Phys. Rev. A 77, 061601 R (2008),,        G. Bismut et al., Collective excitations of a dipolar BEC, Phys. Rev. Lett., 105, 040404 (2010),,        B. Pasquiou et al., Spin relaxation and band excitation of a dipolar BEC in 2D optical lattices, Phys. Rev. Lett. 160, 015301 (2011);Olivier GORCEIX, Pr. (group leader),                Bruno LABURTHE-TOLRA, CNRS Research Associate,        Etienne MARECHAL, CNRS Engineer,        Paolo PEDRI, Assistant Professor,        Laurent VERNAC, Assistant Professor,                Gabriel BISMUT, PhD student,        Benjamin PASQUIOU, PhD student,;Cr, Sr;Location of Université Paris 13.
Greene group;http://fermion.colorado.edu/~chg/NewPages/;JILA, Boulder;United States;;40.0074363;-105.2686481;Theory;;;;
Greiner group;http://physics.harvard.edu/~greiner/index.html;Harvard;United States;;42.3770029;-71.1166601;Exp;;;;
Grimm group;http://www2.uibk.ac.at/exphys/ultracold/;Innsbruck;Austria;;47.2692124;11.4041024;Exp;;;;
Guery-Odelin group;http://www.coldatomsintoulouse.com/;LCAR, Université Paul Sabatier (Toulouse);France;;43.5603781;1.4688585;Exp;Research topics: Production, manipulation, and evaporative cooling of ultracold atomic beam,, atom laser,, Maxwell's demon ,, spinor condensate;Thierry Lahaye & Renaud Mathevet;;
Hadzibabic group;http://www.amop.phy.cam.ac.uk/amop-zh/index.html;Cambridge University;United Kingdom;;52.2042666;0.1149085;Exp;;;;
Hall group;http://jilawww.colorado.edu/hall/;JILA, Boulder;United States;;40.0074363;-105.2686481;Exp;"My research interests include laser stabilization and precise scan techniques using interferometry and/or heterodyne techniques, amplitude stabilization near the ""photon-shot-noise"" level with classical electro-optical methods, and ""squeezed"" beams of sub-shot-noise level or correlated photons produced in nonlinear interactions. I pursue continuous-wave approaches for application in both gravity-wave antennas and measurement of magnetically induced birefringence of the vacuum. Optical atomic clocks based on a strontium ""atomic fountain"" will allow ""ultra-resolution"" determination of linewidths < 10 Hz. A new modulation detection scheme permits cavity-enhanced nonlinear spectroscopy that provides unprecedented sensitivity (<10^-12 absorption) using molecular overtone transitions in the near-visible infrared.";;;
Hannaford / CAOUS group;http://www.swinburne.edu.au/engineering/caous/;Swinburne;Australia;;-37.8221504;145.0389546;Exp/Theory;;Andrei Sidorov, Brenton Hall, Russel McLean, David Gough, James Wang, Bryan Dalton, Tien Kieu, Peter Hannaford;;
Hau group;http://www.deas.harvard.edu/haulab/;Harvard;United States;;42.3770029;-71.1166601;Exp;;;;
Havey group;http://www.lions.odu.edu/~mhavey/Havey_Research_Group/Home.html;Old Dominion University;United States;;36.8856104;-76.3067777;Exp;Quantum optics in dense and cold samples,, EIT, super- and sub-radiant scattering.;Mark Havey, Dmitriy Kupriyanov, Igor Sokolov.  Collaborators:  Charles Sukenik, A. Sieradzan;;
Heinzen group;http://www.ph.utexas.edu/dept/research/heinzen/;Texas, University of;United States;;30.2849185;-97.7340567;Exp;;;;
Hinds group;http://www.imperial.ac.uk/ccm/;Imperial College;United Kingdom;;51.4987997;-0.1748772;Exp;;;;
Holland group;http://bdagger.colorado.edu/;JILA, Boulder;United States;;40.0074363;-105.2686481;Theory;;J. Cooper;;
Hoogerland group;http://qilab.phy.auckland.ac.nz/;University of Auckland;New Zealand;;-36.8523378;174.7691073;Exp;;;;
Hope/Savage group;http://www.anu.edu.au/Physics/ANUBEC/homeframe.html;ANU, Canberra;Australia;;-35.2776999;149.118527;Theory;;;;
Hughes group;http://massey.dur.ac.uk/;Durham University;United Kingdom;;54.7649859;-1.5782029;Exp;Atom optics. Laser cooling of atoms and molecules.;;;
Hulet group;http://atomcool.rice.edu/;Rice;United States;;45.7529003;-94.2223283;Exp;;;;
Hutchinson group;http://www.physics.otago.ac.nz/research/uca/index.html;Otago;New Zealand;;-45.4790671;170.1547567;Theory;;;;
Hutson group;http://www.dur.ac.uk/J.M.Hutson/;Durham University;United Kingdom;;54.7649859;-1.5782029;Theory;Formation and properties of ultracold molecules, both from cold atomic gases and by direct cooling. Ultracold atomic and molecular collisions. Bound states of atomic and molecular pairs, including calculations in applied fields. Interatomic and intermolecular potential energy surfaces.;Jeremy M. Hutson;;
Hänsch group;http://www.mpq.mpg.de/~haensch/;LMU München/MPQ;Germany;;48.2596644;11.666723;Exp;;;;
Inguscio group;http://quantumgases.lens.unifi.it;LENS Firenze;Italy;;43.818864;11.192811;Exp/Theory;BEC, Heteronuclear Fermi-Bose mixtures, Heteronuclear Bose-Bose mixtures;Chiara Fort, Francesco Minardi, Giovanni Modugno, Michele Modugno;;
Jaksch group;http://www.physics.ox.ac.uk/qubit/;Oxford;United States;;34.3664951;-89.5192484;Theory;Our research focuses on Quantum Optics, Ultra-cold physics such as optical lattices, Bose-Einstein condensation, and applications to Quantum Information Processing.;;;
Jegliè/Zupaniè group;http://ultracool.ijs.si;Jozef Stefan Institute;Slovenia;;46.0423559;14.4878586;Exp;Cesium BEC, cesium magnetometer;Tadej Menariè, Rok itko, Erik Zupaniè, Peter Jegliè;;
Jendrzejewski group;http://www.kip.uni-heidelberg.de/user/fnj/;Heidelberg University;Germany;;49.4191402;8.6702492;Exp;Ultracold atomic mixtures;;;
Jia group;http://www.sxu.edu.cn/yjjg/jggpsys/Englindex.html;Shanxi University Laser Spectroscopy Lab;China;;0;0;Exp/Theory;http://www.sxu.edu.cn/yjjg/jggpsys/Englindex.html;Suotang Jia,,Liantuan Xiao,,Jie Ma,,Lirong Wang,,Yanting Zhao et. al.;;Webpage does not work (15.02.2018). Cannot find location.
Jiménez-Mier group;https://www.nucleares.unam.mx/~jimenez/home/index.php/atomos-frios;Instituto de Ciencias Nucleares, UNAM;Mexico;;19.325722;-99.180437;Exp;Forbidden transitions in cold atoms. Rydberg atoms.;Jiménez-Mier, Ramírez-Martínez, Flores-Mijangos;;
Jochim group;http://www.lithium6.de;Heidelberg;Germany;;49.3987524;8.6724335;Exp;Ultracold fermions and few-body systems;;;
Kaiser group;http://www.inln.cnrs.fr/activites/themesrecherche/atomes-froids;INLN, CNRS;France;;43.6172824;7.0600584;Exp/Theory;Cold Atoms and Light Scattering,,        Coherent Backscattering, Anderson Localisation of light,,        Dicke super- and subradiance,,        Random Lasing,,        Levy Flights,,        Long Range Interactions,,        Quantum Optics,,        Cold Atoms and Astrophysics,,;Robin Kaiser        William Guerin;;
Kapteyn group;http://jilawww.colorado.edu/kmgroup/;JILA, Boulder;United States;;40.0074363;-105.2686481;Exp;My major interest includes the development of new light sources at short wavelengths and their use to study dynamic processes in material and chemical systems. In particular, the recent development of high-energy ultrashort-pulse laser technology (in large part by the research group I co-lead with Professor Murnane) allows generation of coherent extreme-ultraviolet (EUV) and soft-X-ray bursts of femtosecond (10-15 sec) and even attosecond duration. (For comparison, the ratio of 1 femtosecond to 1 second is about the same as the ratio of 1 second to 30 million years.) The time scales probed by these light pulses correspond to those of chemical reactions and dynamic processes in semiconductors. Thus short-pulse short-wavelength light provides researchers with a unique tool to observe specific atoms, leading to a deeper understanding of the microscopic mechanisms. In recent years, our group has developed a variety of new techniques to efficiently upconvert ultrashort laser pulses coherently into the EUV and soft-X-ray regions of the spectrum. I am also a founding member of the National Science Foundation Engineering Research Center in Extreme Ultraviolet Science and Technology (http://euverc.colostate.edu/) and co-founder of a successful laser company (www.kmlabs.com).;;;
Kastberg group;http://www.phys.umu.se/coldmatter/;Ume? University;Sweden;;63.8205484;20.3036711;Exp/Theory;Coherent Matter and Quantum State Manipulation in Optical Lattices.;;;
Ketterle/Pritchard group;http://cua.mit.edu/ketterle_group/;MIT, Cambridge;United States;;42.360091;-71.09416;Exp;;;;
Kheruntsyan group;http://physics.uq.edu.au/people/kherunts/;University of Queensland;Australia;;-27.4954306;153.0120301;Theory;Degenerate quantum gases and atom optics;;;
Killian group;http://www.owlnet.rice.edu/~killian/index.shtml;Rice;United States;;45.7529003;-94.2223283;Exp;Ultracold neutral plasmas and ultracold atomic gases.;;;
Kivshar group;http://rsphy2.anu.edu.au/nonlinear/;ANU, Canberra;Australia;;-35.2776999;149.118527;Theory;The Nonlinear Physics Centre is engaged in the fundamental research on nonlinear phenomena and nonlinear localized waves and solitons in various branches of physics. The interdisciplinary research of the group covers several topics such as nonlinear effects in bulk media and optical fibers, all-optical switching devices, nanooptics and photonic crystals, self-trapping effects and energy transfer in condensed matter physics and biopolymers, nonlinear atom optics and the dynamics of the Bose-Einstein condensates.;Dragomir N. Neshev, Anton S. Desyatnikov, Elena A. Ostrovskaya;;
Kjaergaard group;http://www.otago.ac.nz/physics/staff/NielsKjaergaard.html;University of Otago;New Zealand;;-45.8646835;170.5144227;Exp;;;;
Kleinert group;http://www.willamette.edu/~mkleiner/Atom_Cooling_%26_Trapping/Welcome.html;Willamette University;United States;;44.9359709;-123.0318598;Exp;Mixed species MOT Rb/Sr.;;;
Knoop group;http://www.few.vu.nl/~s.knoop/experiment.htm;Vrije Universiteit;Netherlands, The;;52.3337568;4.8657199;Exp;;;;
Krems group;http://www.chem.ubc.ca/faculty/krems/;UBC;Canada;;49.2606052;-123.2459938;Theory;The goal of our research is to understand the nature of chemical reactions and find mechanisms to control chemical reactions with external radiation and electromagnetic fields.;;;
Kuga group;https://www.researchgate.net/profile/Takahiro_Kuga;Tokyo;Japan;;35.6894875;139.6917064;Exp;;;;
Köhl group;http://www.quantumoptics.eu;Cambridge University;United Kingdom;;52.2042666;0.1149085;Exp;BEC, Fermi gases, single atoms;;;
Labeyrie group;http://www.inln.cnrs.fr/rubrique.php3?id_rubrique=150;INLN, Nice;France;;43.6172824;7.0600584;Exp/Theory;;George Batrouni (Professeur), Frédéric Hébert (Maître de Conférences), Guillaume Labeyrie (Chargé de Recherche), Christian Miniatura (Directeur de Recherche), Patrizia Vignolo (Professeur);;
Landragin group;http://syrte.obspm.fr/tfc/capteurs_inertiels/frame.html?http://syrte.obspm.fr/tfc/capteurs_inertiels/;SyRTE/Observatoire de Paris;France;;48.8358925;2.3365123;Exp;;;;
Lane group;http://www.ch.qub.ac.uk/staff/lane/index.html;Queen's University of Belfast;United Kingdom;;54.5844087;-5.9340493;Exp/Theory;Studying ultracold reactions and new methods of cooling molecules and atoms;;;
Leanhardt group;http://www-personal.umich.edu/~aehardt/;University of Michigan;United States;;42.2780436;-83.7382241;Exp;Search for permanent electron dipole moment. Yb and tungsten carbide setups.;;;
Leduc group;http://www.lkb.ens.fr/recherche/atfroids/welcome.html;ENS Paris;France;;48.8422058;2.3451689;Exp;;;;
Lev group;http://research.physics.illinois.edu/Lev/LevLab/Home.html;Stanford University;United States;;37.4274745;-122.169719;Exp;ultracold dipolar gases,, atom chips,, many body cavity QED;;;
Lewandowski group;http://jilawww.colorado.edu/lewandowskilab/;JILA, Boulder;United States;;40.0074363;-105.2686481;Exp;My group uses a two-step process to prepare ultracold molecules of NH, a simple free radical. The first step, supersonic expansion, forces NH molecules through a small opening into a vacuum system, where intermolecular collisions cool the rapidly expanding gas (400 m/s) to less than 1 K. The second step uses varying electric fields (Stark deceleration) to slow the cold molecules to rest. Once the molecules are cold and stopped, we can subject them to magnetic trapping, electrostatic trapping, laser cooling, or sympathetic cooling. I plan to work with theorist John Bohn to investigate collisions of cold polar NH radicals (produced in this process) with each other and with ultracold atoms such as Rb.;;;
Liu group;http://physics.okstate.edu/liu/index.html;Oklahoma State University;United States;;36.1270236;-97.0737222;Exp;;;;
Lundblad group;http://abacus.bates.edu/~nlundbla;Bates College;United States;;44.1057216;-70.2021865;Exp;Ultracold gases, Bose-Einstein condensation, optical lattices with novel band structure;Nathan Lundblad;;
Madison group;http://www.physics.ubc.ca/~qdg/;UBC;Canada;;49.2606052;-123.2459938;Exp;;;;
Magierski group;http://www.fizyka.pw.edu.pl/nuclear/index.html;Faculty of Physics, Warsaw University of Technology;Poland;;52.2212012;21.0080857;Theory;Theoretical description of nonequilibrium processes in superfluid Fermi systems: atomic nuclei and quantum gases.        Concerning quantum gases we are interested in physics of BEC-BCS crossover, dynamics of superfluid vortices, quantum turbulence, hydrodynamics and viscosity.        In the case of nuclear systems we are interested in large amplitude nuclear dynamics and in particular        microscopic description of fission/fusion, induced fission and low energy nuclear reactions.        We use mainly the following theoretical tools:        Path Integral Monte Carlo approach, Density Functional Theory (static and time-dependent).        Computational tools: In order to address certain questions concerning strongly interacting quantum systems one needs (super)computers. We use both CPU machines which allow for a massively parallel computing, as well as those with hybrid architecture (CPUs + GPUs).;Piotr Magierski, Gabriel Wlaz³owski, Janusz Oleniacz, Janina Grineviciute, Kazuyuki Sekizawa;;
Maleki group;http://horology.jpl.nasa.gov/;Jet Propulsion Laboratory;United States;;34.2013081;-118.1713944;Exp;A wide-ranging group with BEC, gravity gradiometry, ion trapping, and photonics subgroups.;Rob Thompson working on BEC, Nan Yu and Jim Kohel on gradiometer, John Dick, Vlad Iltchenko, Dmitry Strekalov, Andrey Matsko, Anatoliy Savchenkov, Meirong Tu;;
Marcassa group;http://www.fotonica.ifsc.usp.br/research/atomic.php;University of S?o Paulo;Brazil;;-23.5613991;-46.7307891;Exp;Our laboratory is dedicated to the study of atomic interaction in cold trapped atom samples. In order to achieve such goal, we apply laser cooling and trapping techniques on potassium and rubidium atoms.;Luis G. Marcassa;;
Martin group;http://www.science.uwaterloo.ca/~jddmarti/;Waterloo;Canada;;43.4642578;-80.5204096;Exp;"Experimental Atomic, Molecular and Optical Physics (AMO).          More        specifically, interactions between highly excited ""Rydberg"" atoms,        and between Rydberg atoms and surfaces, using laser cooling and        trapping techniques.          More information ...";;;
McGuirk group;http://www.sfu.ca/physics/faculty/mcguirk.html;Simon Fraser University;Canada;;49.2780937;-122.9198833;Exp;Ultracold degenerate gases, Bose-Einstein condensation (BEC), Atom-based precision measurements, Novel quantum states;;;
Mekhov group;http://www2.physics.ox.ac.uk/research/quantum-optics-of-quantum-many-body-systems;University of Oxford;United Kingdom;;51.7548164;-1.2543668;Theory;Quantum Optics of Ultracold Gases (quantum measurements, light scattering, cavity QED, optical lattices). Optically dense media, strong light-matter coupling, superradiance, polaritons;;;
Meschede group;http://agmeschede.iap.uni-bonn.de;IAP, University of Bonn;Germany;;50.728593;7.0884179;Exp;Single atoms, cavity QED, quantum transport in optical lattices, controlled coherent collisions for quantum information science;Wolfgang Alt;;
Moritz group;http://www.physik.uni-hamburg.de/ilp/moritz/;University of Hamburg;Germany;;53.5665641;9.9846195;Exp;BEC, cold Fermi gases, optical lattices, low-dimensional systems, strongly correlated systems;;;
Muga group;http://tp.lc.ehu.es/qist/;UPV-EHU;Spain;;43.3104637;-2.0113402;Theory;We investigate the dynamics and control of ultracold atoms.        Recent lines of interest are        - The atom diode: one way laser barriers for atomic motion        - Shortcuts to adiabaticity: methods to accelerate expansions, transport and internal state manipulations without final excitations.        - Diffraction in time: a phenomenon analogous to diffraction of light but due to time-dependent obstacles and slits. It will be of increasing importance in cold atom dynamics and applications such as the atom laser, time of flight and ultrashort pulses        techniques.;;;
Mukai group;http://www.brl.ntt.co.jp/people/tetsuya/;NTT, Atsugi;Japan;;35.4404896;139.3156111;Exp;;;;
Murnane group;http://jilawww.colorado.edu/kmgroup/;JILA, Boulder;United States;;40.0074363;-105.2686481;Exp;My research focuses on the generation and application of ultrafast light pulses of only a few cycles in duration. For this work, Prof. Kapteyn and I design and build new types of lasers and investigate new methods for optical pulse shaping and control. One application of extremely short light pulses is to use them to generate coherent X-ray beams. These femtosecond (and possibly attosecond) duration X-ray pulses can be used to study nonlinear optics in regimes not accessible with any other techniques, for holography and microscopy, or to visualize the fastest processes in chemical and material systems. At present, we have a diverse mixture of physicists, engineers, and chemical physicists in our group.;;;
Möttönen group;http://fyslab.tkk.fi/qcd/;Helsinki University of Technology;Finland;;60.1726348;24.9510419;Exp/Theory;The research fields of the group are the following: creation and stability of vortices and monopoles in dilute Bose-Einstein condensates (theory), quantum information processing (exp/theory), nanoelectronics (exp/theory).;;;
O'Dell group;http://www.physics.mcmaster.ca/people/faculty/O'Dell/O'Dell_DHJ_h.html;McMaster University;Canada;;43.260879;-79.9192254;Theory;We study diverse problems in cavity-QED, quantum impurities, optomechanics, dipole-dipole interactions and quantum catastrophes.;;;
O'Hara group;http://www.phys.psu.edu/people/display/index.html?person_id=4224;Penn State;United States;;40.7982133;-77.8599084;Exp;;;;
Ohmori group;http://groups.ims.ac.jp/organization/ohmori_g/index-e.html;Institute for Molecular Science;Japan;;34.9477234;137.1665209;Exp;;;;
Ott group;http://www.physik.uni-kl.de/en/ott/home/;Kaiserslautern;Germany;;49.4400657;7.7491265;Exp;n our research group we study the microscopic structure of ultracold quantum gases. We are especially interested in fundamental experiments in quantum atom optics, quantum simulation and quantum information processing.;;;
Paramekanti group;http://www.physics.utoronto.ca/~arunp;University of Toronto;Canada;;43.6628917;-79.3956564;Theory;Ultracold atoms in gauge fields, Mott insulators, Quench dynamics, Optical lattices;;;
Parker group;http://www.jqc.org.uk/people/nick-parker/30/;Newcastle and Joint Quantum Centre;United Kingdom;;54.77525;-1.584852;Theory;Matter-wave solitons and vortices                        Quantum turbulence                Quantum gases with long-range interactions                Multi-component condensates;;;Webpage doesn't work (15.02.2018).
Pelster group;http://www.theo-phys.uni-essen.de/tp/ags/pelster_dir/;Universität Kaiserslautern;Germany;;49.4253774;7.7555496;Theory;dirty bosons, dipolar quantum gases, atoms in optical lattices, rotating BECs, boson-fermion mixtures, spinor Bose and Fermi gases;;;
Perrin group;http://www-lpl.univ-paris13.fr/bec/;Université Paris Nord / CNRS;France;;48.956155;2.341454;Exp/Theory;;Hél?ne Perrin (CNRS);;Location of Université Paris 13.
Pethick/Smith group;http://www.cold-gases.nbi.dk/;Niels Bohr Institute/Nordita;Denmark;;55.696947;12.571562;Theory;The group works on a variety of problems in ultracold gases and quantum information.;Ben Mottelson,        Christopher Pethick,        Henrik Smith,        Anders S?rensen;;Webpage doesn't work (15.02.2018). Location of Niels Bohr Institute.
Pfau group;http://www.pi5.uni-stuttgart.de/index.php;Universtity of Stuttgart;Germany;;48.7816472;9.1724985;Exp;dipolar quantum gases, optical lattices, ultracold Rydberg matter, atom deposition;Tilman Pfau, Jürgen Stuhler;;
Phelps group;http://jilawww.colorado.edu/~avp/;JILA, Boulder;United States;;40.0074363;-105.2686481;Exp/Theory;My recent research includes analyses of measurements and modeling of ion, fast neutral, and electron processes in low-current, low-pressure discharges and in the cathode region of glow discharges. I currently model the measured radiation from discharges in hydrogen and hydrogen-rare gas mixtures as well as develop and test heavy-particle cross-section sets for use in these and related models.;;;
Phillips group;http://physics.nist.gov/Divisions/Div842/Gp4/group4.html;NIST, Gaithersburg;United States;;39.1380532;-77.2208339;Exp;;Kristian Helmerson, Paul D. Lett, James Porto;;
Pillet group;http://www.lac.u-psud.fr/;CNRS, Univ. Paris Sud;France;;48.827265;2.276624;Exp/Theory;Experiments: cold molecules,, BEC of caesium,, cold Rydberg gases and ultracold plasmas,, Stark deceleration of Rydberg molecules.        Theory: Control of collision dynamics by laser pulses - photoassociation,, control of interactions in an atomic BEC,, control of interaction in 3-body collisions - formation of triatomic molecules,, electronic structures - Feshbach resonances.;Experiments: Pierre Pillet, Daniel Comparat, Nicolas Vanhaecke        Theory: Mireille Aymar, Nadia Bouloufa, Anne Crubellier, Olivier Dulieu, Eliane Luc-Koenig, Françoise Masnou-Seeuws;;
Polzik group;http://www.nbi.ku.dk/side24813.htm;Niels Bohr Institute;Denmark;;55.6969496;12.5715789;Exp;;;;
Proukakis group;http://www.jqc.org.uk/people/nick-proukakis/29/;Newcastle & Joint Quantum Centre;United Kingdom;;54.77525;-1.584852;Theory;Topics:                Bose-Einstein Condensation and Quasi-Condensation                Role of Density & Phase Fluctuations.                Non-Equilibrium Phenomena: Applications to Atom Chips, Atom Lasers & Atom Interferometers                Solitons & Vortices in Quantum Fluids: Analogies with Optical Systems                Quantum Turbulence                Quantum Many-Body Theories                Stochastic Approaches                Numerical Modelling;;;Webpage doesn't work (15.02.2018).
Pu group;http://www.ruf.rice.edu/~hpu/index.htm;Rice;United States;;45.7529003;-94.2223283;Theory;Theoretical Ultracold Atomic Physics;;;
Raithel group;http://cold-atoms.physics.lsa.umich.edu/;University of Michigan;United States;;42.2780436;-83.7382241;Exp;Our group utilizes laser-cooling and trapping of neutral atoms to push the boundaries of quantum control, quantum information, ultracold plasmas, and strong magnetic field physics.;;;
Raizen group;http://www.ph.utexas.edu/~quantopt/;University of Texas at Austin;United States;;30.2849185;-97.7340567;Exp;BEC and Atom Optics;;;
Ramachandran group;http://www.rri.res.in/htmls/eo/index.html;Raman Research institute;India;;13.0128256;77.580666;Exp/Theory;Ultracold atoms/ BEC/Quantum Optics and Quantum Information. Experiments and theory.;Hema Ramachandran, Andal Narayanan, R Srinivasan, Sadiqali Rangwala;;
Raman group;http://www.physics.gatech.edu/chandra/Welcome.html;Georgia Inst. of Technology;United States;;33.7756178;-84.396285;Exp;Quantum mechanics on macroscopic scales using Bose-Einstein condensates.;;;
Rapol group;http://www.iiserpune.ac.in/~umakant.rapol;Indian Institute of science Education and Research;India;;18.5456658;73.8065861;Exp;THe group currently has a Rb Bose-Einstein Condensation sytem. Our research efforts are in the direction of experimental investigations of interactions of ultracold atoms and plasmon resonances. Current experimental efforts are directed towards research on development of new platforms for Quantum information processing and quantum information transfer over macroscopic distances. The group is also focusing on understanding the effect of local and global variation of inter-atomic interactions in a sample of cold quantum gas.;Umakant D. Rapol (Assistant Professor),, Sunil Kumar (PhD Student),, Sumit Sarkar (Integrated PhD student),, Gunjan Verma (PhD student),, Chetan Vishwakarma (Integrated PhD student) and Jay Mangaonkar (Integrated PhD student);;
Reichel group;http://www.lkb.ens.fr/-Atom-chips-?lang=en;ENS Paris / Université Pierre et Marie Curie;France;;48.8422058;2.3451689;Exp/Theory;Quantum Information and Engineering,        Quantum Metrology,        Atom Chips,        Cavity QED;Jérôme Est?ve (CNRS), Jean Hare (Professor),        Romain Long (MdC),        Alice Sinatra (MdC), Jackob Reichel (Professor and group leader);;
Rempe group;http://www.mpq.mpg.de/qdynamics/;MPQ;Germany;;48.2596644;11.666723;Exp;;;;
Renzoni group;http://lasercooling.phys.ucl.ac.uk/;UCL;United Kingdom;;51.5245592;-0.1340401;Exp;We use optical lattices to make models for statistical and condensed matter physics.;;;
Rey group;http://jilawww.colorado.edu/~arey/;JILA, Boulder;United States;;40.0074363;-105.2686481;Theory;"My main research interest is ultracold atoms and molecules loaded in optical lattices, which are periodic trapping potentials created by illuminating the atoms and molecules with laser beams. Atoms in optical lattices are analogous to electrons in solid state crystals. Their big advantage is that these ""artificial crystals of light"" are perfectly clean and highly controllable. Therefore, they are ideal for exploring a whole range of fundamental phenomena that are extremely difficult  or impossible  to study in traditional condensed matter systems. My goal is to study how to control and manipulate these systems to engineer different quantum phases such as superfluids, insulators, quantum magnets, and topological matter. I plan to use them for understanding the physics of strongly correlated bosonic and fermionic systems and nonequilibrium phenomena. Additionally, I am interested in studying how to generate and manipulate entanglement in quantum systems for use in quantum information processing and precision measurements.";;;
Riis/Arnold group;http://www.photonics.phys.strath.ac.uk;Strathclyde, Glasgow;United Kingdom;;55.8628285;-4.2428535;Exp;Storage rings for BECs. Beginning a Ca BEC experiment.;Aidan Arnold, Erling Riis;;
Rubinsztein-Dunlop group;http://www.physics.uq.edu.au/atomoptics/;University of Queensland;Australia;;-27.4954306;153.0120301;Exp;;Halina Rubinsztein-Dunlop, Norman Hekenberg, Erik van Ooijen, Matthew Davis, Cathy Holmes, Gerald Milburn, Simon Haine;;
Ruostekoski group;http://www.soton.ac.uk/~janne;University of Southampton;United Kingdom;;50.9362845;-1.3980303;Theory;;;;
Sackett group;http://galileo.phys.virginia.edu/research/groups/sackett/;University of Virginia;United States;;38.0335529;-78.5079772;Exp;Our current experiment is on condensate interferometry using 87Rb atoms.  We are using a specially designed magnetic waveguide that we hope will permit interferometry with very long interaction times, up to 1 s or more.;;;
Saenz group;http://amo.physik.hu-berlin.de;Humboldt University Berlin;Germany;;52.517883;13.3936551;Theory;;;;
Saffman group;hexagon.physics.wisc.edu;University of Wisconsin - Madison;United States;;43.076592;-89.4124875;Exp/Theory;quantum computing, Rydberg atoms, spatial instabilities;;;
Salasnich group;http://www.padova.infm.it/salasnich/tdqg.html;University of Padova;Italy;;45.406766;11.8774462;Theory;The research activity of our group is focused on the investigation of degenerate quantum gases by using the methods of statistical mechanics and thermal field theory. We study the thermodynamics of weakly-interacting Bose and Fermi superfluids (alkali-metal atoms like rubidium, sodium and lithium, but also atomic hydrogen) trapped in magnetic or magneto-optical traps. We analyze single-particle and collective elementary excitations by numerically solving both Bologliubov-de Gennes and Popov equations. Moreover, we investigate dynamical properties of Bose-Einstein condensates by using the time-dependent 3D Gross-Pitaevskii equation, which describes the macroscopic wave-function (order parameter) of the Bose condensate.                Presently we are investigating the dynamics (collective excitations and free expansion) of a two-component Fermi gas in the BCS-BEC crossover and the formation of solitons in atomic mixtures of bosons and fermions. In particular, we are developing a reliable density functional for the unitary Fermi gas (infinite scattering length) at zero and finite teperature.                We are planning to start the analysis of the condensate properties of p-wave Fermi atoms and d-wave superconductors in the BCS-BEC crossover both in two and three dimensions. Moreover, we are working on the many-body quantum tunneling dynamics of spin-polarized fermions in a double-well potential.;Luca Salasnich, Francesco Ancilotto, Flavio Toigo;;
Salomon group;http://www.lkb.ens.fr/recherche/atfroids/welcome.html;ENS Paris;France;;48.8422058;2.3451689;Exp;;F. Chevy;;
Sanchez-Palencia group;http://www.atomoptic.fr/~theory;CNRS-IOGS;France;;48.713737;2.203492;Theory;We conduct basic research on the theory of quantum matter. We are particularly interested in ultracold atoms with special emphasis on the following topics:        - Bose and Fermi quantum fluids        - dynamics of strongly-correlated quantum systems        - disordered quantum matter        - Anderson localization        - disorder-induced fluid-insulator transitions;;;Location of Institut d'Optique.
Santos group;https://www.itp.uni-hannover.de/380.html;Leibniz University Hannover;Germany;;52.3829641;9.7196989;Theory;;;;
Scalettar group;http://scalettar.physics.ucdavis.edu/;University of California, Davis;United States;;38.536048;-121.749286;Theory;The Scalettar group does Quantum Monte Carlo simulations of strongly interacting bosonic and fermionic systems, with the goal of extracting the charge, spin, and pairing correlations.;;;
Scarola group;http://www.phys.vt.edu/~scarola/index.html;Virginia Tech;United States;;37.2283843;-80.4234167;Theory;Our group uses numerical methods to examine strongly correlated quantum phases of matter.  Our recent work has examined novel phases of interacting bosons and fermions in optical lattices.;;;
Schmelcher group;http://photon.physnet.uni-hamburg.de/ilp/schmelcher/;Center for Optical Quantum Technologies - University of Hamburg;Germany;;53.577425;9.887146;Theory;The group explores several complementary aspects of ultracold physics.        The electronic structure and quantum dynamics of ultracold Rydberg atoms and molecules including their dressing in light fields and the coherent excitation dynamics in multi-trap arrays represents one focus. To develop a deep understanding of the mechanisms of quantum and in particular tunneling dynamics is our goal in case of strongly correlated bosons in low-dimensional traps including optical lattices and waveguides. Ultracold scattering in low-dimensions leads to novel interaction properties of atoms with an immediate impact on the corresponding many-body systems. Confinement-induced resonances and molecules formation as well as confinement-induced transparency are examples. We study nonlinear excitations of Bose-Einstein condensates such as solitons and vortices including their stability, structure and dynamics. Formation of ultracold molecules and steering their dynamics via external electric fields such as quantum control of photoassociation processes open the door to a quantum state selective chemical reactions dynamics.;;;
Schmiedmayer group;http://www.atomchip.org/;Vienna University of Technology;Austria;;48.1986546;16.3684626;Exp;Atom chips;;;
Schneble group;http://ultracold.physics.sunysb.edu;SUNY Stony Brook;United States;;40.9123761;-73.1233889;Exp;BEC, optical lattices;;;
Schumm group;http://www.thorium.at/;Vienna University of Technology;Austria;;48.1986546;16.3684626;Exp;Thorium;;;
Sengstock group;http://www.physnet.uni-hamburg.de/ilp/sengstock/en/index.php;Hamburg;Germany;;53.5510846;9.9936819;Exp;;V. M. Baev, K. Bongs;;
Shaffer group;http://www.nhn.ou.edu/ouresearch/faculty/BioShaffer.shtml;University of Oklahoma;United States;;35.2058936;-97.4457137;Exp/Theory;ultracold Rydberg gases (Cs and Rb), atom chips;James Shaffer;;
Shubhrangshu Dasgupta group;http://www.iitrpr.ac.in/physics/sdasgupta;Indian Institute of Technology Ropar;India;;30.9756394;76.538868;Theory;I am presently interested in quantum plasmonics - particularly interaction of atoms with plasmonic cavities and its applications towards quantum computing.;;;
Sidorov group;http://www.swinburne.edu.au/engineering/caous/people/sidorov.htm;Swinburne;Australia;;-37.8221504;145.0389546;Exp;;;;
Soldán group;none yet;Charles University in Prague;Czech Republic;;50.0871106;14.4234889;Theory;Potential energy surfaces for ultracold atom-molecule dynamics.;;;
Stamper-Kurn group;http://www.physics.berkeley.edu/research/ultracold/;UC Berkeley;United States;;37.8718992;-122.2585399;Exp;Novel macroscopic and mesoscopic quantum systems using ultra-cold atoms.;;;
Steinberg group;http://www.physics.utoronto.ca/~aephraim/aephraim.html;Toronto;Canada;;43.653226;-79.3831843;Exp;BEC of 87Rb -- interaction with optical barriers, and (eventually) measurements on atoms while tunneling through optical barriers.                Optical lattices for quantum information (tomography of COM states, and pulse echoes) and coherent control / quantum chaos.;Alan Stummer;;
Stoof group;http://www.phys.uu.nl/~stoof/;Utrecht;Netherlands, The;;52.0907374;5.1214201;Theory;;;;
Stringari group;http://bec.science.unitn.it/;INFM-BEC Center and University of Trento;Italy;;46.069477;11.121046;Theory;Theoretical research on the various phenomena related to Bose-Einstein condensation and to the physics of cold atomic gases in traps. Rotating quantum gases, Low dimensions, Excitations in Bose-Einstein condensates, Ultracold atoms in optical lattices, Ultracold Fermi gases, Quantum Monte Carlo methods, Casimir-Polder force, Quantum optics and solid state physics, Quantum information processing, Matter-waves interferometry.;Sandro Stringari, Lev P. Pitaevskii, Franco Dalfovo, Stefano Giorgini, Augusto Smerzi, Tommaso Calarco, Iacopo Carusotto, Chiara Menotti, Alessio Recati.;;Location of University of Trento.
Subhadeep Gupta group;http://www.phys.washington.edu/users/deepg/;U. of Washington;United States;;47.6553351;-122.3035199;Exp;;;;
S?rensen group;http://www.nbi.ku.dk/side47084.htm;Niels Bohr Institute;Denmark;;55.6969496;12.5715789;Theory;The main focus of our research is quantum information, but we also do some work on ultra cold atoms.                In general most of our research can be described as quantum state engineering. One of the unique features of quantum optical systems is the extremely good experimental control over the systems, down to the level of controlling individual atoms and ions. In our research we develop theories for how one can use this extremely good experimental control to realize interesting physical effects. In particular we have developed theories for how one can realize quantum computers and for interesting effects, which can be realized with ultra cold atoms.;;;
Takahashi group;http://yagura.scphys.kyoto-u.ac.jp/index-e.html;Kyoto University;Japan;;35.0262444;135.7808218;Exp;Laser Cooling of Yb.;;;
Tarruell group;http://www.qge.icfo.es;ICFO;Spain;;41.275597;1.989566;Exp;Isotopic potassium mixtures;;;
Tarun Kanti Ghosh group;http://home.iitk.ac.in/~tkghosh;Indian Institute of Technology-Kanpur;India;;26.5123388;80.2329;Theory;;;;
Tempere group;https://www.uantwerpen.be/en/staff/jacques-tempere/;Universiteit Antwerpen;Belgium;;51.2228097;4.4102318;Theory;In the field ultracold atoms, our current research focuses on the BEC-BCS transition in Fermi superfluid, imbalanced Fermi superfluids, quantum gases in 2D, optical lattices, skyrmions, and research on polariton condensates.;Prof.dr.Jacques Tempere, prof.dr.Michiel Wouters, dr. Sergei Klimin;;
Thomas group;http://www.phy.duke.edu/research/photon/qoptics/;Duke;United States;;36.0014258;-78.9382286;Exp;;;;
Thompson group;http://jilawww.colorado.edu/~jkt/ThompsonLab/Main.html;JILA, Boulder;United States;;40.0074363;-105.2686481;Exp;My research focuses on understanding the interface between ultracold atoms and quantum optics - an understanding I plan to apply to the field of precision measurement. I am presently devising strategies to reduce the effect of the fundamental quantum noise that arises from Heisenberg's uncertainty relationship as applied to atomic spins. In one project, I work on non-destructively measuring and canceling out the quantum fluctuations in the collective spin state of an ensemble of laser-cooled 87Rb atoms in a high-finesse optical cavity. By learning how to minimize the effect of quantum noise in this type of system, I hope to advance the precise measurements required for atomic clocks and in searches for permanent electric dipole moments in atoms and molecules.;;;
Thomsen group;http://www.fys.ku.dk/coldatoms;Niels Bohr Institute;Denmark;;55.6969496;12.5715789;Exp;Atomic and Molecular Physics, Laser Cooling, Physics with Cold Atoms, Cold Alkaline Earth Atoms, Atomic Clocks;;;
Thywissen group;http://ultracold.physics.utoronto.ca/;Toronto;Canada;;43.653226;-79.3831843;Exp;Quantum Degenerate Bose and Fermi gases. Microfabricated magnetic traps.;Alan Stummer;;
Tino group;http://www.lens.unifi.it/index.php?p=research.ins&id=113;LENS Firenze;Italy;;43.818864;11.192811;Exp;Cold atom interferometry: fundamental tests and applications,, Sr experiment: ultracold atoms and optical clocks;;;
Torma group;http://tfy.tkk.fi/qd/;Aalto University, Helsinki;Finland;;60.2098253;24.9765513;Theory;Ultracold Fermi gases;;;
Trippenbach group;http://www.fuw.edu.pl/~matri/;University of Warsaw;Poland;;52.2403463;21.0186012;Theory;Secialized in condensate collisions, nonlinear atom opics, quantum optics and Josephson effects;Zbigniew, Idziaszek, Pawel Zin, Jan Chwedenczuk, Eryk Infeld;;
Truscott/Baldwin group;http://wwwrsphysse.anu.edu.au/ampl/he_bec/;ANU, Canberra;Australia;;-35.2776999;149.118527;Exp;;Robert Dall;;
Unnikrishnan group;http://www.tifr.res.in/~filab/index.htm;Tata Institute of Fundamental Research;India;;18.9053889;72.804928;Exp;Experimental study of quantum vacuum: the effects of quantum vacuum on matter employing ultra-cold atoms and torsion balances,, quantum dynamics of single atoms or a few number of atoms trapped in optical lattices and near optical cavities.;;;
Vale group;http://www.swinburne.edu.au/engineering/caous/cold_molecules.htm;Swinburne;Australia;;-37.8221504;145.0389546;Exp;;Chris Vale, Peter Hannaford, Wayne Rowlands, Michael Mark, Chris Ticknor, Mark Kivenen;;
Van Wijngaarden group;http://www.yorku.ca/wlaser/;York Univ.;Canada;;43.7734535;-79.5018684;Exp;;;;
Vassen group;http://www.nat.vu.nl/~wim/;Vrije Universiteit;Netherlands, The;;52.3337568;4.8657199;Exp;;;;
Vuletic group;http://www.rle.mit.edu/eap/;MIT, Cambridge;United States;;42.360091;-71.09416;Exp;;;;
Walhout group;http://www.calvin.edu/academic/phys/faculty/mw/research/krypton.htm;Calvin College;United States;;42.9295084;-85.5889329;Exp;;;;
Walraven group;https://staff.fnwi.uva.nl/j.t.m.walraven/walraven/JookWalraven.htm;UvA Amsterdam;Netherlands, The;;52.3558182;4.9557263;Exp;Quantum gases;;;
Wang group;http://www.phy.cuhk.edu.hk/people/wang-dj.html;The Chinese University of Hong Kong;Hong Kong;;22.418097;114.207953;Exp;BEC mixture and ultracold polar molecules;;;
Weidemüller group;http://www.physi.uni-heidelberg.de/Forschung/QD/;University of Heidelberg;Germany;;49.4191402;8.6702492;Exp;Ultracold LiCs mixtures, Rydberg atoms and MOTRIMS;;;
Weimer group;http://www.weimer.itp.uni-hannover.de/;Leibniz University Hannover;Germany;;52.3829641;9.7196989;Theory;Rydberg atoms, polar molecules, dissipative quantum many-body physics, quantum information;;;
Weiss group;http://www.phys.psu.edu/people/display/index.html?person_id=421;Penn State;United States;;40.7982133;-77.8599084;Exp;BEC, optical lattices, reduced dimensions, quantum computing, precision measurements;;;
Weitz group;https://www.qo.uni-bonn.de/quantum-optics-group;University of Bonn;Germany;;50.7267715;7.0865227;Exp;;;;
Weld group;http://web.physics.ucsb.edu/~weld/;UC Santa Barbara;United States;;34.4139629;-119.848947;Exp;;;;
Westbrook group;https://www.lcf.institutoptique.fr/Groupes-de-recherche/Optique-atomique;Institut d'Optique, Laboratoire Charles Fabry;France;;48.71374;2.2034927;Exp;;Alain ASPECT (Professeur chaire Augustin Fresnel de l'IOGS, Directeur de recherche émérite CNRS), Denis BOIRON (Professeur IOGS-U.Psud), Isabelle BOUCHOULE (Chargée de recherche CNRS),        Thomas BOURDEL (Chargé de recherche CNRS),        Philippe BOUYER (Directeur de recherche CNRS),        Marc CHENEAU (Chargé de recherche CNRS),        David CLEMENT (Maitre de conférence IOGS-U.Psud),        Vincent JOSSE (Maitre de conférence IOGS-U.Psud),        Laurent SANCHEZ-PALENCIA (Chercheur CR au CNRS et Prof. CC ? l'Ecole Polytechnique),        Christoph WESTBROOK (Directeur de recherche CNRS,, group leader);;
Whitaker group;http://pages.pomona.edu/~dlw04747/;Pomona College;United States;;34.097743;-117.711803;Exp;;;;
Widera group;http://www.physik.uni-kl.de/en/widera/home/;Kaiserslautern University;Germany;;49.4253774;7.7555496;Exp;;;;
Wieman group;http://spot.colorado.edu/~cwieman/;JILA, Boulder;United States;;40.0074363;-105.2686481;Exp;;;;
Wilkowski group;http://ultracold.quantumlah.org/;Nanyang Technological University;Singapore;;1.3483099;103.6831347;Exp;Experimental activity on ultracold Strontium gas        Fields of interest: Non Abelian gauge field, Nuclear spin dynamics, Long-range force, Coherent processes in random media.;David Wilkowski;;
Will group;https://www.will-lab.com;Columbia University;United States;;40.8075355;-73.9625727;Exp;;;;
Wilson group;http://www.physics.otago.ac.nz/research/uca/index.html;Otago;New Zealand;;-45.4790671;170.1547567;Exp;We are engaged in a wide range of experiments involving ultracold atoms and Bose condensates.  Topics include: atom lasers, optical lattices, atom optics, cold collisions, and ultracold molecules.;;;
Wüster group;http://home.iiserb.ac.in/~sebastian/;Indian Institute for Science Education and Research, Bhopal;India;;23.253028;77.450444;Theory;Non-equilibrium dynamics of complex quantum systems, focus on ultra cold gases, highly excited Rydberg atoms, opto-mechanical devices and hybrid assemblies of these.        Our main interest are quantum simulations for transport phenomena, biological transport and quantum chemistry.;Sebastian Wüster;;
Ye group;http://jilawww.colorado.edu/YeLabs/;JILA, Boulder;United States;;40.0074363;-105.2686481;Exp;My main research interests include ultrasensitive laser spectroscopy, optical frequency metrology, and quantum optics using cold atoms. My group is exploring molecular dynamics using exquisitely sensitive absorption-measurement techniques developed in JILA. We also use high-sensitivity techniques to define ultrastable optical frequency standards, currently being explored for their use in metrology, communications, and high-precision measurements such as in NASA's space-borne interferometers. The use of ultrafast lasers has revolutionized the field of optical frequency metrology, and we are actively pursuing research related to the concept and application of this novel field. We are also exploring cold atoms and molecules for their use in high-precision measurement and quantum optics.;;;
Yong group;http://www.physics.purdue.edu/quantum/;Purdue University;United States;;40.4237054;-86.9211946;Exp;;;;
Zakrzewski group;http://chaos.if.uj.edu.pl/AOD/index.html;Marian smoluchowski Institute of Physics;Poland;;50.0609623;19.9341074;Theory;We  concentrate on modelling cold quantum gases physics        in traps and optical lattices with current interests involving orbital physics,        excitations in many body systems, finite temperature effects, dynamics and approach towards equilibrium. Effects induced by disorder are also of prime importance.;Jakub Zakrzewski, Krzysztof Sacha;;
Zaremba group;http://www.physics.queensu.ca/%7ezaremba/;Queen's University;Canada;;44.2252795;-76.4951412;Theory;;;;
Zelevinsky group;http://www.columbia.edu/cu/zlab/;Columbia University;United States;;40.8075355;-73.9625727;Exp;;;;
Zhang Chuanwei group;http://www.utdallas.edu/~cxz124830/;The University of Texas at Dallas;United States;;32.9857619;-96.7500993;Theory;;;;
Zhang Jing group;http://www.sxu.edu.cn/yjjg/ioe/lab7/lab7/lab7%20-%205.html;Shanxi University;China;;37.841507;112.530014;Exp;Quantum Degenerate 87Rb Bose and 40K Fermi gases.;;;
Zhang Shizhong group;http://www.physics.hku.hk/people/academic/3133;Hong Kong University;China;;22.4162632;114.2109318;Theory;Degenerate quantum gases (including transport, spin-orbit coupling) and strongly correlated electronic systems;;;
Zimmermann group;http://www.pit.physik.uni-tuebingen.de/zimmermann/index.html;Tübingen;Germany;;48.529455;9.043772;Exp;;;;Webpage redirects to a non-working page (15.02.2018).
Zoller group;http://th-physik.uibk.ac.at/qo/;Innsbruck;Austria;;47.2692124;11.4041024;Theory;;H. G. Embacher, H. Ritsch;;
Zwierlein group;http://www.rle.mit.edu/uqg/;MIT;United States;;42.360091;-71.09416;Exp;;;;
van Zyl group;http://sites.stfx.ca/physics/brandon_van_zyl;St. Francis Xavier University;Canada;;45.6179109;-61.9954416;Theory;;;;
von Klitzing group;http://www.bec.gr/index.html;IESL-FORTH;Greece;;35.305134;25.072593;Exp;- To explore the unprecedented potential of matter-wave interferometry        - To look at (de)coherence in increasingly complex quantum systems.                BEC 1: We are constructing a coherently guided matter-wave interferometer. Our matter-waves wi;Dr. Wolf von Klitzing;;
